OBJECTID,ZIP,NAME,ZIPTYPE,STATE,STATEFIPS,COUNTYFIPS,COUNTYNAME,S3DZIP,LAT,LON,EMPTYCOL,TOTRESCNT,MFDU,SFDU,BOXCNT,BIZCNT,RELVER,COLOR,GlobalID,SHAPESTArea,SHAPESTLength
94,15224,PITTSBURGH,NON-UNIQUE,PA,42,42003,ALLEGHENY,152,40.46426325,-79.94511825, ,5113,845,4063,205,495,1.9.3,0,{38CD0F50-BE92-4378-A4FA-018342B795B0},28609151.9487915,31136.6884406514
4109,15012,BELLE VERNON,NON-UNIQUE,PA,42,42129,WESTMORELAND,150,40.15614,-79.812132,,7110,180,6786,144,651,1.9.3,10,{5622E8D7-42F6-4954-BCA1-027E79E94D85},3777748.06942749,8748.13575043968
853,15142,PRESTO,NON-UNIQUE,PA,42,42003,ALLEGHENY,151,40.38040138,-80.12099328, ,1037,0,919,118,30,1.9.3,5,{50A22C3C-87AF-4B8F-89F4-05FD32B80F25},54765999.8917542,53641.0713771451
34576,15221,PITTSBURGH,NON-UNIQUE,PA,42,42003,ALLEGHENY,152,40.43174313,-79.86487858, ,16040,3486,12256,298,826,1.9.3,11,{7A46160F-54EC-4D70-906A-070DB6ED9419},405238419.280762,180318.014741163
302,15216,PITTSBURGH,NON-UNIQUE,PA,42,42003,ALLEGHENY,152,40.40180177,-80.03433406, ,11008,1817,9054,137,535,1.9.3,6,{3138C4F5-5CEE-43E0-8933-0F0E7AA1EEBA},99342792.1983032,75129.2558531648
49,15110,DUQUESNE,NON-UNIQUE,PA,42,42003,ALLEGHENY,151,40.37243097,-79.85005849, ,2833,318,2383,132,169,1.9.3,6,{0572D3C0-9701-472C-B109-0FB3F73FC8EA},56170668.9294434,33483.3907478372
63,15140,PITCAIRN,NON-UNIQUE,PA,42,42003,ALLEGHENY,151,40.40538081,-79.77541598, ,1616,183,1382,51,83,1.9.3,6,{4E4D0A6D-8B46-4F3B-A41B-120E609506E2},15636804.7297363,24765.9809319365
893,15026,CLINTON,NON-UNIQUE,PA,42,42007,BEAVER,150,40.51234159,-80.37390453, ,1457,0,1205,252,90,1.9.3,0,{060219CD-1215-491C-ADD3-15E31994CA1A},145679503.47934,89993.6289100622
107,15239,PITTSBURGH,NON-UNIQUE,PA,42,42003,ALLEGHENY,152,40.48743511,-79.73946234, ,8522,164,8256,102,532,1.9.3,6,{F85E598B-BC93-40B3-9C95-192AC8A5F4EC},473898318.266663,137521.732924415
313,15120,HOMESTEAD,NON-UNIQUE,PA,42,42003,ALLEGHENY,151,40.39606444,-79.90626658, ,9303,1035,8024,244,651,1.9.3,6,{333855ED-238E-4219-BF3A-1B03E620B6BE},139298909.383545,59764.240978267
309,15234,PITTSBURGH,NON-UNIQUE,PA,42,42003,ALLEGHENY,152,40.36961247,-80.01796048, ,6819,1034,5562,223,722,1.9.3,5,{417599F8-E171-4B7C-9BED-1E224FA43843},92911062.0979614,82289.8684914521
19,15035,EAST MC KEESPORT,NON-UNIQUE,PA,42,42003,ALLEGHENY,150,40.39846801,-79.81833267, ,1141,51,1062,28,70,1.9.3,10,{5727D3B9-700D-43F7-B621-1FFACDA2A5B9},11939748.4039917,18081.9815954454
73,15203,PITTSBURGH,NON-UNIQUE,PA,42,42003,ALLEGHENY,152,40.42585758,-79.97513245, ,5709,733,4799,177,888,1.9.3,12,{9B363D48-EAE2-4F39-AD8F-22506F5C60AA},50661253.3573914,49987.1754130362
57,15132,MCKEESPORT,NON-UNIQUE,PA,42,42003,ALLEGHENY,151,40.3392329,-79.84240455, ,9746,1144,8558,44,722,1.9.3,0,{0AD7F458-B319-4527-B1DB-235637FB63F6},174381015.585541,80680.7491762634
257,15276,PITTSBURGH,NON-UNIQUE,PA,42,42003,ALLEGHENY,151,40.551918,-79.939899, ,,,,,,1.9.3,5,{9374F636-799D-4638-94BE-24CF19D4CC1A},3569755.206604,9468.9434971093
125,15126,IMPERIAL,NON-UNIQUE,PA,42,42003,ALLEGHENY,151,40.4070605,-80.17620598, ,3084,294,2663,127,235,1.9.3,15,{3D342C71-3E56-4E55-BA26-26F7B6C25CF4},663819642.676453,194002.28727971
4509,15075,RURAL RIDGE,PO BOX,PA,42,42003,ALLEGHENY,150,40.63261124,-79.83747527, ,90,0,1,89,14,1.9.3,5,{C905BDB3-EC1C-4CA0-9E61-2829DF059A4B},2001180.44000244,10046.3898559652
58,15133,MCKEESPORT,NON-UNIQUE,PA,42,42003,ALLEGHENY,151,40.32924545,-79.86396125, ,2949,121,2828,0,62,1.9.3,1,{D38FA47F-3240-46A4-9096-2A896FB4B4A6},78674660.0268555,55794.5647167482
34569,15228,PITTSBURGH,NON-UNIQUE,PA,42,42003,ALLEGHENY,152,40.37072859,-80.04510354, ,7700,1883,5785,32,444,1.9.3,10,{DE3066A3-92E4-417C-9F1F-346636AD05DC},83943960.1307068,73746.4038564704
376,15139,OAKMONT,NON-UNIQUE,PA,42,42003,ALLEGHENY,151,40.53502586,-79.88243085, ,3161,465,2616,80,379,1.9.3,6,{7921DED5-1C74-4B9A-BCE0-3911444F9916},79554518.8251343,45520.320848711
5,15014,BRACKENRIDGE,NON-UNIQUE,PA,42,42003,ALLEGHENY,150,40.60796437,-79.74083155, ,1493,59,1396,38,76,1.9.3,5,{D7938129-8427-49A4-8C6C-3A19848432D4},15260964.3071899,16857.3874963869
70,15148,WILMERDING,NON-UNIQUE,PA,42,42003,ALLEGHENY,151,40.39963912,-79.81058502, ,1416,216,1166,34,109,1.9.3,5,{17E6865C-36C0-4B7C-9809-3D8720059F19},44288956.8619995,55484.7233799413
345,15205,PITTSBURGH,NON-UNIQUE,PA,42,42003,ALLEGHENY,152,40.43935,-80.10208, ,10831,1718,8997,116,1222,1.9.3,11,{2EAC90A8-3F81-41A7-8F43-3E791D265145},324819524.184204,179047.1402036
34570,15243,PITTSBURGH,NON-UNIQUE,PA,42,42003,ALLEGHENY,152,40.37220649,-80.07521033, ,5679,754,4841,84,232,1.9.3,5,{C0BF2DC2-6B9A-45AC-B700-3E7C0508718E},78541319.4478455,55367.909782935
34573,15220,PITTSBURGH,NON-UNIQUE,PA,42,42003,ALLEGHENY,152,40.421916,-80.047501,,8442,2526,5865,51,797,1.9.3,7,{7946DD39-2C0B-41FD-858E-42A724152131},135155772.306244,129190.256029018
26920,15209,PITTSBURGH,NON-UNIQUE,PA,42,42003,ALLEGHENY,152,40.50084865,-79.97402649, ,5733,318,5354,61,344,1.9.3,10,{FF8622D8-3B88-4340-934B-43462715996E},131802132.73175,107159.245339775
76,15206,PITTSBURGH,NON-UNIQUE,PA,42,42003,ALLEGHENY,152,40.46687654,-79.91552399, ,15041,4317,10234,490,966,1.9.3,11,{6B6270A2-49F5-4E1A-8904-44E1BBF3457C},141709475.773621,79928.1519458762
23,15046,CRESCENT,NON-UNIQUE,PA,42,42003,ALLEGHENY,150,40.55563839,-80.22832411, ,1116,0,1060,56,63,1.9.3,0,{14AA359E-C043-4826-B9E7-450800598D51},63556112.9817505,37940.4317018874
858,16056,SAXONBURG,NON-UNIQUE,PA,42,42019,BUTLER,160,40.72386263,-79.83905753, ,2291,249,1700,342,201,1.9.3,7,{C3794FFA-46DD-4A2F-A8FF-46BC033ED71B},3888956.72473145,10318.311048047
336,15017,BRIDGEVILLE,NON-UNIQUE,PA,42,42003,ALLEGHENY,150,40.34316582,-80.13009131, ,7437,1216,6065,156,865,1.9.3,6,{C8461EEC-98FC-41AC-BFF6-4877D311C01A},293710176.305206,123844.607078611
859,15068,NEW KENSINGTON,NON-UNIQUE,PA,42,42129,WESTMORELAND,150,40.55494408,-79.70895869, ,17680,1375,15906,399,1146,1.9.3,12,{EEFF2771-2F98-48DE-9CAC-49F84B3E8679},259347289.676392,107517.410423707
592,15104,BRADDOCK,NON-UNIQUE,PA,42,42003,ALLEGHENY,151,40.4017865,-79.85603257, ,4136,427,3564,145,254,1.9.3,10,{6FCB909B-8979-4323-8B89-4A7AD707C3BF},77723960.5701904,46045.7288723028
8113,15076,RUSSELLTON,NON-UNIQUE,PA,42,42003,ALLEGHENY,150,40.6109096,-79.83650823, ,518,40,344,134,78,1.9.3,15,{E1D40D22-317D-4798-BC57-51EA3506E64D},32133200.347229,46767.2340263831
860,15005,BADEN,NON-UNIQUE,PA,42,42007,BEAVER,150,40.64337237,-80.16605706, ,4086,243,3793,50,176,1.9.3,12,{21A801BB-C8D9-4EE7-838E-52470EAEBC48},107509656.894592,62947.5182477561
152,15084,TARENTUM,NON-UNIQUE,PA,42,42003,ALLEGHENY,150,40.61473817,-79.80443624, ,4538,346,4134,58,472,1.9.3,6,{A00EFDA2-FD29-4B81-AD8A-53B0E12B71EB},803301777.458313,245643.413819019
882,15668,MURRYSVILLE,NON-UNIQUE,PA,42,42129,WESTMORELAND,156,40.46510414,-79.66682253, ,5479,176,5150,153,580,1.9.3,11,{9F5E022A-36CD-4B19-9299-55001E2AD4DA},3252369.97033691,11175.0481945926
30,15064,MORGAN,NON-UNIQUE,PA,42,42003,ALLEGHENY,150,40.3570462,-80.14755828, ,197,0,160,37,54,1.9.3,12,{1FA645FE-C42C-4C6F-A8F7-575717E417F3},18286424.3265991,29186.0793110152
154,15006,BAIRDFORD,PO BOX,PA,42,42003,ALLEGHENY,150,40.63632608,-79.9466552, ,,,,,,1.9.3,12,{E34895F1-D822-4D51-ADD7-5A6EFD3CA15D},3987176.14471436,14072.2889959599
34575,15221,PITTSBURGH,NON-UNIQUE,PA,42,42003,ALLEGHENY,152,40.43174313,-79.86487858, ,16040,3486,12256,298,826,1.9.3,11,{E6C4FF1C-14CE-401F-B389-5A747B61D3C3},0.00079345703125,0.157256766112336
905,15332,FINLEYVILLE,NON-UNIQUE,PA,42,42125,WASHINGTON,153,40.23664564,-79.98846347, ,3572,106,3403,63,164,1.9.3,5,{B42E936B-EC34-4D0B-A442-5BAA8E985422},92586437.9814148,65509.7609438962
863,15003,AMBRIDGE,NON-UNIQUE,PA,42,42007,BEAVER,150,40.60947689,-80.22024162, ,5481,211,5085,185,474,1.9.3,11,{B563A649-C6D4-4D39-881B-5EF1F87C1A72},11798940.3369141,27382.0349678957
31,15065,NATRONA HEIGHTS,NON-UNIQUE,PA,42,42003,ALLEGHENY,150,40.64174598,-79.72652033, ,5339,309,4928,102,399,1.9.3,10,{99206AD3-D38B-4853-BBEA-632419299957},351411121.132568,107552.066574649
55,15129,SOUTH PARK,NON-UNIQUE,PA,42,42003,ALLEGHENY,151,40.29378767,-79.9950397, ,4690,836,3674,180,183,1.9.3,16,{5F1C6CBE-D261-464A-9F1D-673D4D5F1533},233866588.410736,87854.2208236276
359,15143,SEWICKLEY,NON-UNIQUE,PA,42,42003,ALLEGHENY,151,40.57996515,-80.14296867, ,8071,759,7068,244,790,1.9.3,13,{F6D300CE-A7D0-4E23-803A-68351D70E270},952341823.429077,158416.775782514
195,15238,PITTSBURGH,NON-UNIQUE,PA,42,42003,ALLEGHENY,152,40.53502586,-79.88243085, ,5995,584,5205,206,967,1.9.3,6,{E6FEBE1F-0338-4D97-8CFE-6BE2523CDC7C},491815012.141235,175456.297718879
100,15232,PITTSBURGH,NON-UNIQUE,PA,42,42003,ALLEGHENY,152,40.45294179,-79.93224793, ,6796,4113,2604,79,441,1.9.3,5,{14540988-6754-4A8C-A748-6CB303426CC4},22519697.3411255,36098.3915880129
113,15290,PITTSBURGH,NON-UNIQUE,PA,42,42003,ALLEGHENY,152,40.45866861,-80.02204336, ,0,0,0,0,1,1.9.3,10,{930CCE98-4F12-478B-A825-6D529F798805},967402.069885254,4646.95856865538
10,15020,BUNOLA,PO BOX,PA,42,42003,ALLEGHENY,150,40.21979141,-79.96302413, ,131,0,1,130,13,1.9.3,12,{6A1DF0B9-0732-465E-A020-6DBC3DCE93B3},52544100.8355103,40987.2586664173
34572,15106,CARNEGIE,NON-UNIQUE,PA,42,42003,ALLEGHENY,151,40.40887692,-80.11377374, ,8935,1001,7885,49,946,1.9.3,16,{6810A026-B186-4C30-9334-6E27E51B0214},72.9854431152344,46.7036131983897
183,15051,INDIANOLA,NON-UNIQUE,PA,42,42003,ALLEGHENY,150,40.57959175,-79.86609649, ,243,0,201,42,45,1.9.3,10,{1A3867AA-9625-453F-83EA-73EBDFCB5927},12095520.4421387,18193.8640877149
692,15217,PITTSBURGH,NON-UNIQUE,PA,42,42003,ALLEGHENY,152,40.43135754,-79.92139908, ,12495,3165,9119,211,798,1.9.3,15,{0A4F9FB0-CBFA-4E88-A748-75676F70D67A},117259169.302155,68823.2617192357
47,15106,CARNEGIE,NON-UNIQUE,PA,42,42003,ALLEGHENY,151,40.40887692,-80.11377374, ,8935,1001,7885,49,946,1.9.3,16,{AA1C4C28-498C-4CEB-88BA-767C237966C9},296159057.142975,130001.89510245
178,15044,GIBSONIA,NON-UNIQUE,PA,42,42003,ALLEGHENY,150,40.63632608,-79.9466552, ,10321,270,9828,223,613,1.9.3,12,{3B97FABF-5DC1-4D72-BFA7-790D014396E5},1090837588.8252,238585.070232896
56,15131,MCKEESPORT,NON-UNIQUE,PA,42,42003,ALLEGHENY,151,40.32513782,-79.80337403, ,3997,557,3440,0,286,1.9.3,8,{FA436401-5594-4ACC-9EDF-7B2AC0984C11},197696518.558899,99605.4396940515
101,15233,PITTSBURGH,NON-UNIQUE,PA,42,42003,ALLEGHENY,152,40.45789522,-80.02901278, ,1690,396,998,296,535,1.9.3,5,{0674C6ED-673C-4527-8D78-7CD0B0302F6E},46027481.4365845,38838.8244882561
11,15024,CHESWICK,NON-UNIQUE,PA,42,42003,ALLEGHENY,150,40.57399059,-79.84720933, ,3670,29,3593,48,220,1.9.3,11,{C65108C3-C86F-4BCF-92AF-7D36A15D93FC},480979767.821045,196543.72305181
24,15047,GREENOCK,PO BOX,PA,42,42003,ALLEGHENY,150,40.31121933,-79.79640995, ,163,0,1,162,16,1.9.3,15,{E03C7DC0-2C30-465D-90E9-82C16CA52037},8297050.90625,14602.9118682253
14,15034,DRAVOSBURG,NON-UNIQUE,PA,42,42003,ALLEGHENY,150,,, ,979,0,950,29,104,1.9.3,6,{C7A863B3-22E1-42B1-A368-872E83B4A9CC},29885395.682312,27557.1871821006
43,15090,WEXFORD,NON-UNIQUE,PA,42,42003,ALLEGHENY,150,40.62165889,-80.06218593, ,7978,685,7121,172,1154,1.9.3,11,{C81CA318-F864-4630-BA80-8B5177880A70},625403031.303162,212160.157109195
3732,15207,PITTSBURGH,NON-UNIQUE,PA,42,42003,ALLEGHENY,151,40.398646,-79.933936, ,5309,344,4885,80,221,1.9.3,5,{1224E878-50CE-407F-B26C-8C0345828818},130993035.026245,111510.8489509
864,16046,MARS,NON-UNIQUE,PA,42,42019,BUTLER,160,40.69775333,-80.02885615, ,5311,0,4517,794,479,1.9.3,13,{DEF761E6-B53C-4EC7-A893-8E6ED408689C},107355045.051758,102482.647869157
300,15136,MC KEES ROCKS,NON-UNIQUE,PA,42,42003,ALLEGHENY,151,40.46625436,-80.1052967, ,9910,678,9056,176,759,1.9.3,15,{66C84F75-7F80-4D27-BA99-8F5879211BE1},305241546.694458,128080.316158873
69,15147,VERONA,NON-UNIQUE,PA,42,42003,ALLEGHENY,151,40.4968904,-79.82986158, ,8048,830,7137,81,386,1.9.3,5,{A4DA6611-B8F5-46E8-9960-8FBD142EBAFC},282976748.586304,130079.146174238
181,15101,ALLISON PARK,NON-UNIQUE,PA,42,42003,ALLEGHENY,151,40.58764373,-79.94259225, ,9780,960,8748,72,607,1.9.3,7,{2854ADFF-24F0-4203-9F37-9151CF1F48DE},568217517.585083,201359.382401033
243,15229,PITTSBURGH,NON-UNIQUE,PA,42,42003,ALLEGHENY,152,40.517189,-80.030806, ,6411,665,5672,74,312,1.9.3,5,{65541C6E-E28D-4150-B563-93F955826F42},112881227.7323,87913.9343540729
307,15102,BETHEL PARK,NON-UNIQUE,PA,42,42003,ALLEGHENY,151,40.32221149,-80.03642213, ,12769,1668,10948,153,861,1.9.3,6,{2EB816EA-46E9-4C7B-886A-99FA183C4EC3},294768775.09259,94100.1055486353
591,15221,PITTSBURGH,NON-UNIQUE,PA,42,42003,ALLEGHENY,152,40.43174313,-79.86487858, ,16040,3486,12256,298,826,1.9.3,11,{F2103F22-0665-4BA1-B7D8-9BD97F00CD1F},165167385.639954,92197.7609012082
287,15237,PITTSBURGH,NON-UNIQUE,PA,42,42003,ALLEGHENY,152,40.54828572,-80.05271256, ,18376,2952,15125,299,1880,1.9.3,12,{4B1C99A3-857A-4BCB-A79B-9E02F30DF27D},667132696.263306,233015.888692268
890,15108,CORAOPOLIS,NON-UNIQUE,PA,42,42003,ALLEGHENY,151,40.48157,-80.191806,,17495,2710,14450,335,1381,1.9.3,10,{B25FF607-7A2D-4D47-993E-9EF00B902FE9},1030129249.90802,277541.507310867
82,15212,PITTSBURGH,NON-UNIQUE,PA,42,42003,ALLEGHENY,152,40.4677639,-80.05312347, ,14090,2933,10866,291,961,1.9.3,8,{90BE35C1-FB70-47E2-BFD3-A2AEB33E65B9},175900536.090942,148604.456769657
4,15007,BAKERSTOWN,NON-UNIQUE,PA,42,42003,ALLEGHENY,150,40.65668829,-79.93212966, ,173,0,107,66,55,1.9.3,10,{4768B869-6BC2-4B77-8DC7-A3BB678888D1},12288976.1229248,21102.0123525781
12,15025,CLAIRTON,NON-UNIQUE,PA,42,42003,ALLEGHENY,150,40.28416284,-79.91537341, ,7218,277,6768,173,494,1.9.3,0,{86730D4E-BBA9-4B57-8336-A444594F7E27},447028071.414917,152122.709442444
112,15275,PITTSBURGH,NON-UNIQUE,PA,42,42003,ALLEGHENY,152,40.45235707,-80.18180181, ,0,0,0,0,181,1.9.3,13,{6879EEB7-CBC2-4D52-B5D9-A5D5A8CEB5BF},36876514.2090149,57715.7844828148
22,15045,GLASSPORT,NON-UNIQUE,PA,42,42003,ALLEGHENY,150,40.32654473,-79.886074, ,2155,56,2013,86,140,1.9.3,11,{D75C7638-C33A-4CBF-8D1E-A6944FEE51D4},49081784.6929932,34875.722183555
277,15116,GLENSHAW,NON-UNIQUE,PA,42,42003,ALLEGHENY,151,40.551918,-79.939899, ,6093,86,5931,76,374,1.9.3,5,{993779CB-C9F6-4CDC-AA88-A7C006E9E836},217477590.305481,126812.841704068
258,15083,SUTERSVILLE,NON-UNIQUE,PA,42,42003,ALLEGHENY,150,40.28940773,-79.79123687, ,,,,,,1.9.3,11,{BB0BB666-A223-45A9-8674-A950C0F5983C},7630132.75473022,19131.6011625834
34571,15231,PITTSBURGH,UNIQUE,PA,42,42003,ALLEGHENY,151,40.4070605,-80.17620598, ,,,,,,1.9.3,15,{48935354-E8B0-4E13-A8D8-A9BB99E1C627},27990578.3448486,21329.6095517362
900,15321,CECIL,NON-UNIQUE,PA,42,42125,WASHINGTON,153,40.32301892,-80.18939955, ,796,0,658,138,74,1.9.3,10,{E0DC3A5E-59AC-4686-BD65-AB36B2F6AF97},1449834.93325806,7429.42127878993
685,15071,OAKDALE,NON-UNIQUE,PA,42,42003,ALLEGHENY,150,40.4070605,-80.17620598, ,4325,0,4245,80,319,1.9.3,12,{5F2F4686-4F24-4446-B3C4-AD29390EF1D3},489041568.519714,173871.739699128
59,15135,MCKEESPORT,NON-UNIQUE,PA,42,42003,ALLEGHENY,151,40.30216627,-79.81469332, ,2192,280,1879,33,93,1.9.3,5,{760085A3-2A1B-44A4-9858-AEA6311684E9},110483900.20108,72136.6251065227
34562,15210,PITTSBURGH,NON-UNIQUE,PA,42,42003,ALLEGHENY,152,40.40670799,-79.98530508, ,11824,919,10592,313,523,1.9.3,0,{A95C7D40-9F74-41C0-A2D9-B019B76240E4},128149140.692352,92927.0868501867
340,15031,CUDDY,NON-UNIQUE,PA,42,42003,ALLEGHENY,150,40.359621,-80.178499, ,271,0,164,107,38,1.9.3,10,{E291E778-2FDB-4E05-9F93-B061A8F7837C},27170209.7917175,52827.8852437986
15,15030,CREIGHTON,NON-UNIQUE,PA,42,42003,ALLEGHENY,150,40.58806677,-79.77999562, ,532,1,491,40,64,1.9.3,0,{5E20E33C-05C8-49F4-A63F-B29340E9BC6E},47525828.6331787,61015.748761752
908,15063,MONONGAHELA,NON-UNIQUE,PA,42,42125,WASHINGTON,150,40.20063939,-79.92817274, ,5130,157,4851,122,339,1.9.3,11,{00DD3ADA-FF13-44A8-910C-B7C4BAA97BD8},356975497.567596,119935.29510755
6,15015,BRADFORD WOODS,NON-UNIQUE,PA,42,42003,ALLEGHENY,150,40.6364525,-80.08523523, ,525,0,430,95,56,1.9.3,10,{BABB5D5E-1FF4-4E03-BBAB-B84CBB5BFB31},26705500.5024414,33633.518305507
527,15145,TURTLE CREEK,NON-UNIQUE,PA,42,42003,ALLEGHENY,151,40.41645483,-79.82407788, ,3559,307,3164,88,236,1.9.3,17,{E2ED0CB5-5DDA-4EF4-AE3F-BA6BF6002261},56273576.3391724,63222.9817767348
8,15018,BUENA VISTA,NON-UNIQUE,PA,42,42003,ALLEGHENY,150,40.28940773,-79.79123687, ,415,0,286,129,22,1.9.3,11,{4E2C2FAA-7976-4BEF-8119-BBB65C2F7014},61508163.559082,74417.8986320184
66,15144,SPRINGDALE,NON-UNIQUE,PA,42,42003,ALLEGHENY,151,40.54658212,-79.78534981, ,1976,159,1789,28,143,1.9.3,10,{17187878-280E-4EB3-A513-BC21F819466A},81594465.7597046,58079.9526654257
27,15056,LEETSDALE,NON-UNIQUE,PA,42,42003,ALLEGHENY,150,40.56545938,-80.21316383, ,569,65,471,33,127,1.9.3,5,{E8048D78-459F-45F2-8BB7-BD728E2D0F38},30418602.3798218,26688.1626618206
370,15215,PITTSBURGH,NON-UNIQUE,PA,42,42003,ALLEGHENY,152,40.49616648,-79.91664792, ,5617,544,5014,59,486,1.9.3,7,{B4B258BE-AD4C-428E-B5F6-BF42D3C37FF9},169969874.164917,68323.8113755554
278,15202,PITTSBURGH,NON-UNIQUE,PA,42,42003,ALLEGHENY,152,40.49877307,-80.05095444, ,10134,2745,7339,50,538,1.9.3,17,{EFC6E2F2-68E3-4795-8E3E-BF5C75122C81},134025548.94281,80930.9705796565
216,15223,PITTSBURGH,NON-UNIQUE,PA,42,42003,ALLEGHENY,152,40.50611141,-79.95117001, ,3532,232,3272,28,283,1.9.3,12,{BF739C67-EFAE-4BAA-8CC3-BFC29FAEAE55},56839252.3106079,56488.1557979254
296,15122,WEST MIFFLIN,NON-UNIQUE,PA,42,42003,ALLEGHENY,151,40.36062103,-79.90927201, ,9167,631,8491,45,472,1.9.3,5,{DF2BE71D-F1BC-4056-90F7-C0698B4FDA01},387551148.172821,157959.97357955
256,15282,PITTSBURGH,NON-UNIQUE,PA,42,42003,ALLEGHENY,152,40.44291632,-79.98815211, ,,,,,,1.9.3,11,{90C0B91D-1527-4729-AFEE-C388E634A907},268656.100097656,2301.32381191186
26921,16059,VALENCIA,NON-UNIQUE,PA,42,42019,BUTLER,160,40.70351862,-79.93065089, ,3286,0,3088,198,188,1.9.3,11,{FF7EA897-E227-4495-8FE0-C56D26137DCE},22340151.5690918,39007.7695057459
95,15225,PITTSBURGH,NON-UNIQUE,PA,42,42003,ALLEGHENY,152,40.50688702,-80.11220909, ,603,0,578,25,150,1.9.3,16,{73BB6FA5-B8CB-40D8-A292-C8AC931AEFC8},65384475.5179443,58702.9992217381
268,15088,WEST ELIZABETH,NON-UNIQUE,PA,42,42003,ALLEGHENY,150,40.25059259,-79.86374335, ,,,,,,1.9.3,10,{3F6DAE87-C96B-403D-B589-CB7F3696195C},8978218.13388062,22352.5597697891
88,15218,PITTSBURGH,NON-UNIQUE,PA,42,42003,ALLEGHENY,152,40.42616848,-79.88669761, ,7238,1229,5858,151,441,1.9.3,0,{115FC638-65FB-4864-8E27-CC6756C47CD2},69345385.0270081,46389.903884796
886,15089,WEST NEWTON,NON-UNIQUE,PA,42,42129,WESTMORELAND,150,40.21590808,-79.74185899, ,2881,139,2681,61,177,1.9.3,13,{17006982-B31E-4199-B529-CF78EB4BC0C1},5112824.57397461,22305.3592229615
884,15085,TRAFFORD,NON-UNIQUE,PA,42,42129,WESTMORELAND,150,40.38481212,-79.71904635, ,3452,104,3305,43,189,1.9.3,5,{1EAD1C8E-705B-4221-B6BB-D28A573375AB},11566975.6408386,22884.7460663003
83,15213,PITTSBURGH,NON-UNIQUE,PA,42,42003,ALLEGHENY,152,40.4430908,-79.95520627, ,11666,6940,4487,239,947,1.9.3,6,{EAF54ABC-E455-4BCB-B221-D579E1242754},71579524.9023743,60013.4291858616
255,16229,FREEPORT,NON-UNIQUE,PA,42,42003,ALLEGHENY,150,40.64174598,-79.72652033, ,,,,,,1.9.3,10,{9854CE82-59CB-4E16-A63F-D64920BD5EA6},2958958.862854,9228.62616137391
2116,15226,PITTSBURGH,NON-UNIQUE,PA,42,42003,ALLEGHENY,152,40.39597226,-80.01427671, ,6578,603,5908,67,367,1.9.3,11,{09780AB6-B857-4B38-A56A-D6D3581ABFD2},69704109.8656311,59462.4901555675
78,15208,PITTSBURGH,NON-UNIQUE,PA,42,42003,ALLEGHENY,152,40.45379945,-79.89944151, ,5012,772,4126,114,298,1.9.3,5,{FB1D8C86-BDFC-4473-892D-D7999119FA07},40979095.2307129,40348.321665996
81,15211,PITTSBURGH,NON-UNIQUE,PA,42,42003,ALLEGHENY,152,40.43077203,-80.0151459, ,5893,901,4922,70,206,1.9.3,10,{4947BA7C-BC90-4825-B540-DA3311566C49},43441539.98349,36229.2564201343
50,15112,EAST PITTSBURGH,NON-UNIQUE,PA,42,42003,ALLEGHENY,151,40.406067,-79.83876378, ,1830,154,1595,81,141,1.9.3,12,{5B39C659-1E8C-4F25-AAA4-DCE9E7E6C0B6},21943123.4373474,29902.424541139
237,15227,PITTSBURGH,NON-UNIQUE,PA,42,42003,ALLEGHENY,152,40.381338,-79.969707, ,13011,1522,11412,77,622,1.9.3,16,{E0E4D041-A766-4D78-8127-DFFBD17309A8},180964873.812897,120354.062036471
68,15146,MONROEVILLE,NON-UNIQUE,PA,42,42003,ALLEGHENY,151,40.42693174,-79.759102, ,13159,3114,9836,209,1837,1.9.3,16,{A5AE5829-C414-4AD3-B19D-E04B1FE08F92},532787838.731842,150979.924643768
34574,15226,PITTSBURGH,NON-UNIQUE,PA,42,42003,ALLEGHENY,152,40.39597226,-80.01427671, ,6578,603,5908,67,367,1.9.3,11,{BD175AAC-E982-42A5-A3A5-E12600422E5F},1.70358276367188,38.2175157837988
61,15137,NORTH VERSAILLES,NON-UNIQUE,PA,42,42003,ALLEGHENY,151,40.3780742,-79.80876604, ,5010,788,4114,108,384,1.9.3,15,{357A761E-C584-47FB-854E-E8C91C75BE69},223086172.538727,113283.177901623
92,15222,PITTSBURGH,NON-UNIQUE,PA,42,42003,ALLEGHENY,152,40.44779855,-79.99154271, ,1904,1534,168,202,1939,1.9.3,10,{0A493F77-F872-41A0-816E-E900D171D856},31030028.6910706,42434.9690758318
111,15261,PITTSBURGH,UNIQUE,PA,42,42003,ALLEGHENY,152,40.44655133,-79.95955977, ,0,0,0,0,0,1.9.3,5,{29ADE7CC-CBDF-49B0-B6C1-EB1045BE6051},324741.463439941,2970.28234777327
678,15086,WARRENDALE,NON-UNIQUE,PA,42,42003,ALLEGHENY,150,40.64717864,-80.0953598, ,157,0,93,64,229,1.9.3,10,{96EBB7AC-2CE6-404C-97A8-EBC16ADD2540},44487139.3718262,56384.1631386307
25,15049,HARWICK,NON-UNIQUE,PA,42,42003,ALLEGHENY,150,40.55594268,-79.80560481, ,546,0,463,83,23,1.9.3,15,{CEC8C572-1900-45CE-88AF-EC3E199852EF},18921596.4783325,26044.353073833
298,15204,PITTSBURGH,NON-UNIQUE,PA,42,42003,ALLEGHENY,152,40.45436768,-80.05936821, ,3645,112,3484,49,139,1.9.3,10,{478BB633-2446-4D0B-AA3F-EFBEF91D5202},53643204.6076965,39984.5422711656
897,15057,MC DONALD,NON-UNIQUE,PA,42,42125,WASHINGTON,150,40.35731321,-80.21749696, ,5280,110,5069,101,174,1.9.3,11,{093B892C-6AF8-4882-90CC-F2015F4A0387},528206151.066315,223250.440282853
2509,15037,ELIZABETH,NON-UNIQUE,PA,42,42003,ALLEGHENY,150,40.250593,-79.863743,,4675,43,4558,74,263,1.9.3,10,{11BAA0B6-60C5-4F19-A8C1-F2122BE07023},738684056.993225,217483.343681703
460,15028,COULTERS,PO BOX,PA,42,42003,ALLEGHENY,150,40.295303,-79.801633,,87,,1,86,3,1.9.3,6,{C6C99F73-FF1E-4BF8-B844-F3B6496E9EF9},6559347.09951782,16588.1249635548
84,15214,PITTSBURGH,NON-UNIQUE,PA,42,42003,ALLEGHENY,152,40.48571112,-80.01328973, ,6370,417,5953,0,111,1.9.3,6,{CFA66008-DB78-4DCA-931B-F3E4A54D4D7D},124592731.184875,92511.500160667
38,15082,STURGEON,PO BOX,PA,42,42003,ALLEGHENY,150,40.38088936,-80.21310333, ,175,0,1,174,15,1.9.3,0,{68837542-C476-4E60-86D8-F67AD536E4E0},4526030.56356812,13235.2480976695
903,15241,PITTSBURGH,NON-UNIQUE,PA,42,42003,ALLEGHENY,152,40.33186282,-80.0828404, ,7820,658,7027,135,888,1.9.3,15,{AEE5E07F-EF87-4E93-90E0-F7E81B93CA30},278938937.068146,107232.356695015
89,15219,PITTSBURGH,NON-UNIQUE,PA,42,42003,ALLEGHENY,152,40.44291632,-79.98815211, ,6080,2644,3378,58,1728,1.9.3,11,{3A7259DD-F31C-4F1C-835B-F8FC2FE77646},72858750.3772888,76262.2924034759
34568,15236,PITTSBURGH,NON-UNIQUE,PA,42,42003,ALLEGHENY,152,40.38282012,-79.94502258, ,13685,2318,11099,268,1035,1.9.3,15,{9DC6C8C5-BF0C-4197-B55F-FC78F21F75EB},285023276.092316,203124.322341435
883,15642,IRWIN,NON-UNIQUE,PA,42,42129,WESTMORELAND,156,40.30204562,-79.70319636, ,18756,870,17657,229,1111,1.9.3,7,{94796352-FF04-4F83-8620-FCD7904D7C43},5261496.94454956,12232.0753274887
71,15201,PITTSBURGH,NON-UNIQUE,PA,42,42003,ALLEGHENY,152,40.47540275,-79.9536848, ,6231,300,5871,60,638,1.9.3,13,{1D1DC52E-3E57-4BA9-AC30-FF1CEBB05331},76487383.4189453,52392.3094481181
